{"type": "FeatureCollection", "features": [ {"type": "Feature", "properties": {"norad_id": 36366, "name": "COSMOS 2251 DEB", "group": "cosmos-2251-debris", "lat": 74.02004412059179, "lon": -4.921620772860941, "alt_km": 834.6545049642173, "timestamp": "2025-12-19T06:59:44.303930+00:00", "meta": {"OBJECT_NAME": "COSMOS 2251 DEB", "OBJECT_ID": "1993-036AYT", "EPOCH": "2025-12-18T10:28:10.933824", "MEAN_MOTION": 14.33441246, "ECCENTRICITY": 0.00903868, "INCLINATION": 74.0662, "RA_OF_ASC_NODE": 262.6684, "ARG_OF_PERICENTER": 289.8178, "MEAN_ANOMALY": 69.3247, "EPHEMERIS_TYPE": 0, "CLASSIFICATION_TYPE": "U", "NORAD_CAT_ID": 36366, "ELEMENT_SET_NO": 999, "REV_AT_EPOCH": 86370, "BSTAR": 0.0013274586, "MEAN_MOTION_DOT": 3.811e-05, "MEAN_MOTION_DDOT": 0}, "tle": {"line1": "1 36366U 93036AYT 25352.43623766  .00003811  00000+0  13275-2 0  9991", "line2": "2 36366  74.0662 262.6684 0090386 289.8178  69.3247 14.33441246863701"}}, "geometry": {"type": "Point", "coordinates": [-4.921620772860941, 74.02004412059179]}}, {"type": "Feature", "properties": {"norad_id": 36367, "name": "COSMOS 2251 DEB", "group": "cosmos-2251-debris", "lat": 71.87495156223244, "lon": -20.1677713282433, "alt_km": 1120.8284428211473, "timestamp": "2025-12-19T06:59:44.303940+00:00", "meta": {"OBJECT_NAME": "COSMOS 2251 DEB", "OBJECT_ID": "1993-036AYU", "EPOCH": "2025-12-16T09:14:18.433248", "MEAN_MOTION": 13.86349505, "ECCENTRICITY": 0.02621043, "INCLINATION": 74.1014, "RA_OF_ASC_NODE": 225.2719, "ARG_OF_PERICENTER": 297.3835, "MEAN_ANOMALY": 60.0842, "EPHEMERIS_TYPE": 0, "CLASSIFICATION_TYPE": "U", "NORAD_CAT_ID": 36367, "ELEMENT_SET_NO": 999, "REV_AT_EPOCH": 57580, "BSTAR": 0.0011645262, "MEAN_MOTION_DOT": 1.741e-05, "MEAN_MOTION_DDOT": 0}, "tle": {"line1": "1 36367U 93036AYU 25350.38493557  .00001741  00000+0  11645-2 0  9996", "line2": "2 36367  74.1014 225.2719 0262104 297.3835  60.0842 13.86349505575803"}}, "geometry": {"type": "Point", "coordinates": [-20.1677713282433, 71.87495156223244]}}, {"type": "Feature", "properties": {"norad_id": 36369, "name": "COSMOS 2251 DEB", "group": "cosmos-2251-debris", "lat": 23.65458618748879, "lon": -129.2533566889579, "alt_km": 641.3656738198197, "timestamp": "2025-12-19T06:59:44.303950+00:00", "meta": {"OBJECT_NAME": "COSMOS 2251 DEB", "OBJECT_ID": "1993-036AYW", "EPOCH": "2025-12-16T11:29:35.574144", "MEAN_MOTION": 14.73629062, "ECCENTRICITY": 0.00109821, "INCLINATION": 74.0316, "RA_OF_ASC_NODE": 63.4356, "ARG_OF_PERICENTER": 140.037, "MEAN_ANOMALY": 220.1613, "EPHEMERIS_TYPE": 0, "CLASSIFICATION_TYPE": "U", "NORAD_CAT_ID": 36369, "ELEMENT_SET_NO": 999, "REV_AT_EPOCH": 85977, "BSTAR": 0.00089048503, "MEAN_MOTION_DOT": 5.781e-05, "MEAN_MOTION_DDOT": 0}, "tle": {"line1": "1 36369U 93036AYW 25350.47888396  .00005781  00000+0  89049-3 0  9999", "line2": "2 36369  74.0316  63.4356 0010982 140.0370 220.1613 14.73629062859773"}}, "geometry": {"type": "Point", "coordinates": [-129.2533566889579, 23.65458618748879]}}, {"type": "Feature", "properties": {"norad_id": 36371, "name": "COSMOS 2251 DEB", "group": "cosmos-2251-debris", "lat": -4.183282815223052, "lon": 147.5999438151932, "alt_km": 668.3430011615055, "timestamp": "2025-12-19T06:59:44.303960+00:00", "meta": {"OBJECT_NAME": "COSMOS 2251 DEB", "OBJECT_ID": "1993-036AYY", "EPOCH": "2025-12-17T04:24:24.496704", "MEAN_MOTION": 14.70697295, "ECCENTRICITY": 0.00093434, "INCLINATION": 74.0124, "RA_OF_ASC_NODE": 152.897, "ARG_OF_PERICENTER": 191.9871, "MEAN_ANOMALY": 168.1079, "EPHEMERIS_TYPE": 0, "CLASSIFICATION_TYPE": "U", "NORAD_CAT_ID": 36371, "ELEMENT_SET_NO": 999, "REV_AT_EPOCH": 71510, "BSTAR": 0.0014821732, "MEAN_MOTION_DOT": 9.018e-05, "MEAN_MOTION_DDOT": 0}, "tle": {"line1": "1 36371U 93036AYY 25351.18361686  .00009018  00000+0  14822-2 0  9992", "line2": "2 36371  74.0124 152.8970 0009343 191.9871 168.1079 14.70697295715103"}}, "geometry": {"type": "Point", "coordinates": [147.5999438151932, -4.183282815223052]}}, {"type": "Feature", "properties": {"norad_id": 36379, "name": "COSMOS 2251 DEB", "group": "cosmos-2251-debris", "lat": 59.07943260766826, "lon": -36.626538928837164, "alt_km": 733.4024925651001, "timestamp": "2025-12-19T06:59:44.303971+00:00", "meta": {"OBJECT_NAME": "COSMOS 2251 DEB", "OBJECT_ID": "1993-036AZG", "EPOCH": "2025-12-17T15:24:04.295232", "MEAN_MOTION": 14.36087226, "ECCENTRICITY": 0.00447272, "INCLINATION": 74.0127, "RA_OF_ASC_NODE": 297.8094, "ARG_OF_PERICENTER": 65.3038, "MEAN_ANOMALY": 112.1684, "EPHEMERIS_TYPE": 0, "CLASSIFICATION_TYPE": "U", "NORAD_CAT_ID": 36379, "ELEMENT_SET_NO": 999, "REV_AT_EPOCH": 64898, "BSTAR": 0.00025368539, "MEAN_MOTION_DOT": 7.21e-06, "MEAN_MOTION_DDOT": 0}, "tle": {"line1": "1 36379U 93036AZG 25351.64171638  .00000721  00000+0  25369-3 0  9998", "line2": "2 36379  74.0127 297.8094 0044727  65.3038 112.1684 14.36087226648986"}}, "geometry": {"type": "Point", "coordinates": [-36.626538928837164, 59.07943260766826]}}, {"type": "Feature", "properties": {"norad_id": 36385, "name": "COSMOS 2251 DEB", "group": "cosmos-2251-debris", "lat": 23.882690512717595, "lon": -45.58746052689549, "alt_km": 744.7450300045784, "timestamp": "2025-12-19T06:59:44.303981+00:00", "meta": {"OBJECT_NAME": "COSMOS 2251 DEB", "OBJECT_ID": "1993-036AZN", "EPOCH": "2025-12-18T20:30:15.909120", "MEAN_MOTION": 14.72670627, "ECCENTRICITY": 0.01414565, "INCLINATION": 73.9692, "RA_OF_ASC_NODE": 142.5811, "ARG_OF_PERICENTER": 315.6212, "MEAN_ANOMALY": 43.369, "EPHEMERIS_TYPE": 0, "CLASSIFICATION_TYPE": "U", "NORAD_CAT_ID": 36385, "ELEMENT_SET_NO": 999, "REV_AT_EPOCH": 85192, "BSTAR": 0.00099972778, "MEAN_MOTION_DOT": 7.44e-05, "MEAN_MOTION_DDOT": 0}, "tle": {"line1": "1 36385U 93036AZN 25352.85435080  .00007440  00000+0  99973-3 0  9990", "line2": "2 36385  73.9692 142.5811 0141456 315.6212  43.3690 14.72670627851928"}}, "geometry": {"type": "Point", "coordinates": [-45.58746052689549, 23.882690512717595]}}, {"type": "Feature", "properties": {"norad_id": 36420, "name": "COSMOS 2251 DEB", "group": "cosmos-2251-debris", "lat": -36.66114761967176, "lon": -108.86237603010471, "alt_km": 763.1634294043306, "timestamp": "2025-12-19T06:59:44.303995+00:00", "meta": {"OBJECT_NAME": "COSMOS 2251 DEB", "OBJECT_ID": "1993-036AZT", "EPOCH": "2025-12-16T13:10:06.446208", "MEAN_MOTION": 14.36904576, "ECCENTRICITY": 0.00182942, "INCLINATION": 74.0376, "RA_OF_ASC_NODE": 268.4783, "ARG_OF_PERICENTER": 355.3587, "MEAN_ANOMALY": 184.0352, "EPHEMERIS_TYPE": 0, "CLASSIFICATION_TYPE": "U", "NORAD_CAT_ID": 36420, "ELEMENT_SET_NO": 999, "REV_AT_EPOCH": 85091, "BSTAR": 0.0001395606, "MEAN_MOTION_DOT": 3.87e-06, "MEAN_MOTION_DDOT": 0}, "tle": {"line1": "1 36420U 93036AZT 25350.54868572  .00000387  00000+0  13956-3 0  9990", "line2": "2 36420  74.0376 268.4783 0018294 355.3587 184.0352 14.36904576850913"}}, "geometry": {"type": "Point", "coordinates": [-108.86237603010471, -36.66114761967176]}}, {"type": "Feature", "properties": {"norad_id": 36430, "name": "COSMOS 2251 DEB", "group": "cosmos-2251-debris", "lat": 50.08318999421942, "lon": -103.41300762237333, "alt_km": 826.7028366757713, "timestamp": "2025-12-19T06:59:44.304006+00:00", "meta": {"OBJECT_NAME": "COSMOS 2251 DEB", "OBJECT_ID": "1993-036BAD", "EPOCH": "2025-12-17T14:02:08.838528", "MEAN_MOTION": 14.27804633, "ECCENTRICITY": 0.00972961, "INCLINATION": 74.0048, "RA_OF_ASC_NODE": 99.7344, "ARG_OF_PERICENTER": 248.7934, "MEAN_ANOMALY": 110.2799, "EPHEMERIS_TYPE": 0, "CLASSIFICATION_TYPE": "U", "NORAD_CAT_ID": 36430, "ELEMENT_SET_NO": 999, "REV_AT_EPOCH": 64626, "BSTAR": 0.00041842357, "MEAN_MOTION_DOT": 1.061e-05, "MEAN_MOTION_DDOT": 0}, "tle": {"line1": "1 36430U 93036BAD 25351.58482452  .00001061  00000+0  41842-3 0  9990", "line2": "2 36430  74.0048  99.7344 0097296 248.7934 110.2799 14.27804633646268"}}, "geometry": {"type": "Point", "coordinates": [-103.41300762237333, 50.08318999421942]}}, {"type": "Feature", "properties": {"norad_id": 36437, "name": "COSMOS 2251 DEB", "group": "cosmos-2251-debris", "lat": 61.13563646686601, "lon": 52.7106304235509, "alt_km": 668.4673098267667, "timestamp": "2025-12-19T06:59:44.304017+00:00", "meta": {"OBJECT_NAME": "COSMOS 2251 DEB", "OBJECT_ID": "1993-036BAL", "EPOCH": "2025-12-17T10:37:14.678400", "MEAN_MOTION": 14.70771964, "ECCENTRICITY": 0.00232298, "INCLINATION": 73.9427, "RA_OF_ASC_NODE": 24.8176, "ARG_OF_PERICENTER": 256.1896, "MEAN_ANOMALY": 103.669, "EPHEMERIS_TYPE": 0, "CLASSIFICATION_TYPE": "U", "NORAD_CAT_ID": 36437, "ELEMENT_SET_NO": 999, "REV_AT_EPOCH": 66120, "BSTAR": 0.001110469, "MEAN_MOTION_DOT": 6.78e-05, "MEAN_MOTION_DDOT": 0}, "tle": {"line1": "1 36437U 93036BAL 25351.44253100  .00006780  00000+0  11105-2 0  9999", "line2": "2 36437  73.9427  24.8176 0023229 256.1896 103.6690 14.70771964661206"}}, "geometry": {"type": "Point", "coordinates": [52.7106304235509, 61.13563646686601]}}, {"type": "Feature", "properties": {"norad_id": 36439, "name": "COSMOS 2251 DEB", "group": "cosmos-2251-debris", "lat": -24.486898732557613, "lon": 18.73722622380059, "alt_km": 788.0215189865739, "timestamp": "2025-12-19T06:59:44.304027+00:00", "meta": {"OBJECT_NAME": "COSMOS 2251 DEB", "OBJECT_ID": "1993-036BAN", "EPOCH": "2025-12-16T11:25:24.463776", "MEAN_MOTION": 13.47804354, "ECCENTRICITY": 0.04280619, "INCLINATION": 73.9685, "RA_OF_ASC_NODE": 30.7531, "ARG_OF_PERICENTER": 1.8523, "MEAN_ANOMALY": 358.4044, "EPHEMERIS_TYPE": 0, "CLASSIFICATION_TYPE": "U", "NORAD_CAT_ID": 36439, "ELEMENT_SET_NO": 999, "REV_AT_EPOCH": 58663, "BSTAR": 0.0011092098, "MEAN_MOTION_DOT": 1.175e-05, "MEAN_MOTION_DDOT": 0}, "tle": {"line1": "1 36439U 93036BAN 25350.47597759  .00001175  00000+0  11092-2 0  9992", "line2": "2 36439  73.9685  30.7531 0428061   1.8523 358.4044 13.47804354586639"}}, "geometry": {"type": "Point", "coordinates": [18.73722622380059, -24.486898732557613]}}]}